{"type": "FeatureCollection", "features": [ {"type": "Feature", "properties": {"norad_id": 42917, "name": "QZS-3 (QZSS/PRN 199)", "group": "gnss", "lat": 0.041086569729015934, "lon": -68.66447623514678, "alt_km": 35777.34902388001, "timestamp": "2025-12-08T05:48:09.278450+00:00", "meta": {"OBJECT_NAME": "QZS-3 (QZSS/PRN 199)", "OBJECT_ID": "2017-048A", "EPOCH": "2025-12-07T22:47:57.012288", "MEAN_MOTION": 1.00273948, "ECCENTRICITY": 0.00022002, "INCLINATION": 0.0659, "RA_OF_ASC_NODE": 209.9216, "ARG_OF_PERICENTER": 52.6367, "MEAN_ANOMALY": 283.4297, "EPHEMERIS_TYPE": 0, "CLASSIFICATION_TYPE": "U", "NORAD_CAT_ID": 42917, "ELEMENT_SET_NO": 999, "REV_AT_EPOCH": 3034, "BSTAR": 0, "MEAN_MOTION_DOT": -3.45e-06, "MEAN_MOTION_DDOT": 0}, "tle": {"line1": "1 42917U 17048A   25341.94996542 -.00000345  00000+0  00000+0 0  9997", "line2": "2 42917   0.0659 209.9216 0002200  52.6367 283.4297  1.00273948 30346"}}, "geometry": {"type": "Point", "coordinates": [-68.66447623514678, 0.041086569729015934]}}, {"type": "Feature", "properties": {"norad_id": 42939, "name": "COSMOS 2522 (752)", "group": "gnss", "lat": 62.977400320474786, "lon": -89.09981395257937, "alt_km": 19136.29727854699, "timestamp": "2025-12-08T05:48:09.278463+00:00", "meta": {"OBJECT_NAME": "COSMOS 2522 (752)", "OBJECT_ID": "2017-055A", "EPOCH": "2025-12-07T04:42:21.698208", "MEAN_MOTION": 2.13101873, "ECCENTRICITY": 0.00064632, "INCLINATION": 64.0758, "RA_OF_ASC_NODE": 198.418, "ARG_OF_PERICENTER": 225.3159, "MEAN_ANOMALY": 134.7149, "EPHEMERIS_TYPE": 0, "CLASSIFICATION_TYPE": "U", "NORAD_CAT_ID": 42939, "ELEMENT_SET_NO": 999, "REV_AT_EPOCH": 6388, "BSTAR": 0, "MEAN_MOTION_DOT": 6.1e-07, "MEAN_MOTION_DDOT": 0}, "tle": {"line1": "1 42939U 17055A   25341.19608447  .00000061  00000+0  00000+0 0  9994", "line2": "2 42939  64.0758 198.4180 0006463 225.3159 134.7149  2.13101873 63886"}}, "geometry": {"type": "Point", "coordinates": [-89.09981395257937, 62.977400320474786]}}, {"type": "Feature", "properties": {"norad_id": 42965, "name": "QZS-4 (QZSS/PRN 195)", "group": "gnss", "lat": -23.67808352232589, "lon": -45.32647819442662, "alt_km": 33614.71056632927, "timestamp": "2025-12-08T05:48:09.278475+00:00", "meta": {"OBJECT_NAME": "QZS-4 (QZSS/PRN 195)", "OBJECT_ID": "2017-062A", "EPOCH": "2025-12-07T21:05:53.129760", "MEAN_MOTION": 1.0025358, "ECCENTRICITY": 0.07523887, "INCLINATION": 40.2283, "RA_OF_ASC_NODE": 345.9325, "ARG_OF_PERICENTER": 271.4244, "MEAN_ANOMALY": 272.796, "EPHEMERIS_TYPE": 0, "CLASSIFICATION_TYPE": "U", "NORAD_CAT_ID": 42965, "ELEMENT_SET_NO": 999, "REV_AT_EPOCH": 2988, "BSTAR": 0, "MEAN_MOTION_DOT": -3.49e-06, "MEAN_MOTION_DDOT": 0}, "tle": {"line1": "1 42965U 17062A   25341.87908715 -.00000349  00000+0  00000+0 0  9997", "line2": "2 42965  40.2283 345.9325 0752388 271.4244 272.7960  1.00253580 29889"}}, "geometry": {"type": "Point", "coordinates": [-45.32647819442662, -23.67808352232589]}}, {"type": "Feature", "properties": {"norad_id": 43001, "name": "BEIDOU-3 M1 (C19)", "group": "gnss", "lat": 2.1667664990520197, "lon": -112.04050440739145, "alt_km": 21543.044327694297, "timestamp": "2025-12-08T05:48:09.278487+00:00", "meta": {"OBJECT_NAME": "BEIDOU-3 M1 (C19)", "OBJECT_ID": "2017-069A", "EPOCH": "2025-12-07T10:33:38.997216", "MEAN_MOTION": 1.86230818, "ECCENTRICITY": 0.00090499, "INCLINATION": 56.5227, "RA_OF_ASC_NODE": 69.4088, "ARG_OF_PERICENTER": 303.7178, "MEAN_ANOMALY": 56.2144, "EPHEMERIS_TYPE": 0, "CLASSIFICATION_TYPE": "U", "NORAD_CAT_ID": 43001, "ELEMENT_SET_NO": 999, "REV_AT_EPOCH": 5503, "BSTAR": 0, "MEAN_MOTION_DOT": -4.4e-07, "MEAN_MOTION_DDOT": 0}, "tle": {"line1": "1 43001U 17069A   25341.44003469 -.00000044  00000+0  00000+0 0  9993", "line2": "2 43001  56.5227  69.4088 0009049 303.7178  56.2144  1.86230818 55035"}}, "geometry": {"type": "Point", "coordinates": [-112.04050440739145, 2.1667664990520197]}}, {"type": "Feature", "properties": {"norad_id": 43002, "name": "BEIDOU-3 M2 (C20)", "group": "gnss", "lat": -31.515824510318172, "lon": -86.67006381021488, "alt_km": 21538.855301309115, "timestamp": "2025-12-08T05:48:09.278498+00:00", "meta": {"OBJECT_NAME": "BEIDOU-3 M2 (C20)", "OBJECT_ID": "2017-069B", "EPOCH": "2025-12-07T09:04:52.679136", "MEAN_MOTION": 1.86230635, "ECCENTRICITY": 0.00063308, "INCLINATION": 56.5218, "RA_OF_ASC_NODE": 69.4472, "ARG_OF_PERICENTER": 331.2047, "MEAN_ANOMALY": 28.7785, "EPHEMERIS_TYPE": 0, "CLASSIFICATION_TYPE": "U", "NORAD_CAT_ID": 43002, "ELEMENT_SET_NO": 999, "REV_AT_EPOCH": 5502, "BSTAR": 0, "MEAN_MOTION_DOT": -4.4e-07, "MEAN_MOTION_DDOT": 0}, "tle": {"line1": "1 43002U 17069B   25341.37838749 -.00000044  00000+0  00000+0 0  9993", "line2": "2 43002  56.5218  69.4472 0006330 331.2047  28.7785  1.86230635 55025"}}, "geometry": {"type": "Point", "coordinates": [-86.67006381021488, -31.515824510318172]}}, {"type": "Feature", "properties": {"norad_id": 43055, "name": "GSAT0215 (GALILEO 19)", "group": "gnss", "lat": -54.48335334756547, "lon": 149.39539924269312, "alt_km": 23213.87974889356, "timestamp": "2025-12-08T05:48:09.278509+00:00", "meta": {"OBJECT_NAME": "GSAT0215 (GALILEO 19)", "OBJECT_ID": "2017-079A", "EPOCH": "2025-12-06T00:43:24.455424", "MEAN_MOTION": 1.70473755, "ECCENTRICITY": 0.00048437, "INCLINATION": 55.1369, "RA_OF_ASC_NODE": 226.8228, "ARG_OF_PERICENTER": 284.5496, "MEAN_ANOMALY": 75.4946, "EPHEMERIS_TYPE": 0, "CLASSIFICATION_TYPE": "U", "NORAD_CAT_ID": 43055, "ELEMENT_SET_NO": 999, "REV_AT_EPOCH": 4969, "BSTAR": 0, "MEAN_MOTION_DOT": 3.4e-07, "MEAN_MOTION_DDOT": 0}, "tle": {"line1": "1 43055U 17079A   25340.03014416  .00000034  00000+0  00000+0 0  9999", "line2": "2 43055  55.1369 226.8228 0004843 284.5496  75.4946  1.70473755 49697"}}, "geometry": {"type": "Point", "coordinates": [149.39539924269312, -54.48335334756547]}}, {"type": "Feature", "properties": {"norad_id": 43056, "name": "GSAT0216 (GALILEO 20)", "group": "gnss", "lat": 54.24663353784251, "lon": -28.581592609109173, "alt_km": 23221.649904240636, "timestamp": "2025-12-08T05:48:09.278520+00:00", "meta": {"OBJECT_NAME": "GSAT0216 (GALILEO 20)", "OBJECT_ID": "2017-079B", "EPOCH": "2025-12-07T11:52:26.276448", "MEAN_MOTION": 1.7047388, "ECCENTRICITY": 0.00025242, "INCLINATION": 55.1322, "RA_OF_ASC_NODE": 226.7823, "ARG_OF_PERICENTER": 318.0138, "MEAN_ANOMALY": 42.0613, "EPHEMERIS_TYPE": 0, "CLASSIFICATION_TYPE": "U", "NORAD_CAT_ID": 43056, "ELEMENT_SET_NO": 999, "REV_AT_EPOCH": 4973, "BSTAR": 0, "MEAN_MOTION_DOT": 2.4e-07, "MEAN_MOTION_DDOT": 0}, "tle": {"line1": "1 43056U 17079B   25341.49474857  .00000024  00000+0  00000+0 0  9999", "line2": "2 43056  55.1322 226.7823 0002524 318.0138  42.0613  1.70473880 49732"}}, "geometry": {"type": "Point", "coordinates": [-28.581592609109173, 54.24663353784251]}}, {"type": "Feature", "properties": {"norad_id": 43057, "name": "GSAT0217 (GALILEO 21)", "group": "gnss", "lat": -29.590941261054816, "lon": -156.5339718526705, "alt_km": 23218.139727286845, "timestamp": "2025-12-08T05:48:09.278533+00:00", "meta": {"OBJECT_NAME": "GSAT0217 (GALILEO 21)", "OBJECT_ID": "2017-079C", "EPOCH": "2025-12-05T22:56:13.502976", "MEAN_MOTION": 1.70473847, "ECCENTRICITY": 0.00027948, "INCLINATION": 55.1308, "RA_OF_ASC_NODE": 226.8227, "ARG_OF_PERICENTER": 341.4584, "MEAN_ANOMALY": 18.6294, "EPHEMERIS_TYPE": 0, "CLASSIFICATION_TYPE": "U", "NORAD_CAT_ID": 43057, "ELEMENT_SET_NO": 999, "REV_AT_EPOCH": 4969, "BSTAR": 0, "MEAN_MOTION_DOT": 3.5e-07, "MEAN_MOTION_DDOT": 0}, "tle": {"line1": "1 43057U 17079C   25339.95571184  .00000035  00000+0  00000+0 0  9991", "line2": "2 43057  55.1308 226.8227 0002794 341.4584  18.6294  1.70473847 49692"}}, "geometry": {"type": "Point", "coordinates": [-156.5339718526705, -29.590941261054816]}}, {"type": "Feature", "properties": {"norad_id": 43058, "name": "GSAT0218 (GALILEO 22)", "group": "gnss", "lat": -6.523179547291604, "lon": 51.335918803131655, "alt_km": 23227.21017248829, "timestamp": "2025-12-08T05:48:09.278546+00:00", "meta": {"OBJECT_NAME": "GSAT0218 (GALILEO 22)", "OBJECT_ID": "2017-079D", "EPOCH": "2025-12-06T18:17:46.482720", "MEAN_MOTION": 1.70473862, "ECCENTRICITY": 0.00028449, "INCLINATION": 55.1307, "RA_OF_ASC_NODE": 226.7982, "ARG_OF_PERICENTER": 305.5375, "MEAN_ANOMALY": 54.5328, "EPHEMERIS_TYPE": 0, "CLASSIFICATION_TYPE": "U", "NORAD_CAT_ID": 43058, "ELEMENT_SET_NO": 999, "REV_AT_EPOCH": 4973, "BSTAR": 0, "MEAN_MOTION_DOT": 2.9e-07, "MEAN_MOTION_DDOT": 0}, "tle": {"line1": "1 43058U 17079D   25340.76234355  .00000029  00000+0  00000+0 0  9992", "line2": "2 43058  55.1307 226.7982 0002844 305.5375  54.5328  1.70473862 49733"}}, "geometry": {"type": "Point", "coordinates": [51.335918803131655, -6.523179547291604]}}, {"type": "Feature", "properties": {"norad_id": 43107, "name": "BEIDOU-3 M7 (C27)", "group": "gnss", "lat": 24.87912202491754, "lon": -31.733963685913835, "alt_km": 21518.991736149357, "timestamp": "2025-12-08T05:48:09.278557+00:00", "meta": {"OBJECT_NAME": "BEIDOU-3 M7 (C27)", "OBJECT_ID": "2018-003A", "EPOCH": "2025-12-07T02:54:56.285856", "MEAN_MOTION": 1.86232289, "ECCENTRICITY": 0.00027014, "INCLINATION": 54.5017, "RA_OF_ASC_NODE": 309.0103, "ARG_OF_PERICENTER": 69.3468, "MEAN_ANOMALY": 290.667, "EPHEMERIS_TYPE": 0, "CLASSIFICATION_TYPE": "U", "NORAD_CAT_ID": 43107, "ELEMENT_SET_NO": 999, "REV_AT_EPOCH": 5377, "BSTAR": 0, "MEAN_MOTION_DOT": -7.2e-07, "MEAN_MOTION_DDOT": 0}, "tle": {"line1": "1 43107U 18003A   25341.12148479 -.00000072  00000+0  00000+0 0  9996", "line2": "2 43107  54.5017 309.0103 0002701  69.3468 290.6670  1.86232289 53774"}}, "geometry": {"type": "Point", "coordinates": [-31.733963685913835, 24.87912202491754]}}]}